[{"OBJECT_NAME":"STARLINK-30078","OBJECT_ID":"2023-079U","EPOCH":"2026-02-11T18:22:14.575008","MEAN_MOTION":15.27581982,"ECCENTRICITY":0.00010988,"INCLINATION":43.001,"RA_OF_ASC_NODE":205.7746,"ARG_OF_PERICENTER":292.1643,"MEAN_ANOMALY":67.9092,"EPHEMERIS_TYPE":0,"CLASSIFICATION_TYPE":"U","NORAD_CAT_ID":56841,"ELEMENT_SET_NO":999,"REV_AT_EPOCH":14948,"BSTAR":4.5432833e-5,"MEAN_MOTION_DOT":9.88e-6,"MEAN_MOTION_DDOT":0},{"OBJECT_NAME":"STARLINK-30135","OBJECT_ID":"2023-079V","EPOCH":"2026-02-11T21:44:03.958368","MEAN_MOTION":15.02540382,"ECCENTRICITY":0.00012538,"INCLINATION":43.001,"RA_OF_ASC_NODE":247.5682,"ARG_OF_PERICENTER":259.7557,"MEAN_ANOMALY":100.3144,"EPHEMERIS_TYPE":0,"CLASSIFICATION_TYPE":"U","NORAD_CAT_ID":56842,"ELEMENT_SET_NO":999,"REV_AT_EPOCH":14900,"BSTAR":7.980326e-5,"MEAN_MOTION_DOT":8.75e-6,"MEAN_MOTION_DDOT":0},{"OBJECT_NAME":"STARLINK-30137","OBJECT_ID":"2023-079W","EPOCH":"2026-02-10T00:44:30.544512","MEAN_MOTION":15.02532659,"ECCENTRICITY":9.792e-5,"INCLINATION":43.0019,"RA_OF_ASC_NODE":257.5793,"ARG_OF_PERICENTER":257.3131,"MEAN_ANOMALY":102.7602,"EPHEMERIS_TYPE":0,"CLASSIFICATION_TYPE":"U","NORAD_CAT_ID":56843,"ELEMENT_SET_NO":999,"REV_AT_EPOCH":14872,"BSTAR":-2.739965e-6,"MEAN_MOTION_DOT":-2.41e-6,"MEAN_MOTION_DDOT":0},{"OBJECT_NAME":"STARLINK-30136","OBJECT_ID":"2023-079X","EPOCH":"2026-02-11T22:03:15.398208","MEAN_MOTION":15.02532087,"ECCENTRICITY":0.00010545,"INCLINATION":43.0038,"RA_OF_ASC_NODE":247.6493,"ARG_OF_PERICENTER":269.5514,"MEAN_ANOMALY":90.5207,"EPHEMERIS_TYPE":0,"CLASSIFICATION_TYPE":"U","NORAD_CAT_ID":56844,"ELEMENT_SET_NO":999,"REV_AT_EPOCH":14900,"BSTAR":-1.0036793e-5,"MEAN_MOTION_DOT":-3.39e-6,"MEAN_MOTION_DDOT":0},{"OBJECT_NAME":"STARLINK-6206","OBJECT_ID":"2023-083A","EPOCH":"2026-02-11T13:11:13.712928","MEAN_MOTION":15.02534961,"ECCENTRICITY":0.00017763,"INCLINATION":43.0028,"RA_OF_ASC_NODE":224.2146,"ARG_OF_PERICENTER":256.4647,"MEAN_ANOMALY":103.5998,"EPHEMERIS_TYPE":0,"CLASSIFICATION_TYPE":"U","NORAD_CAT_ID":56876,"ELEMENT_SET_NO":999,"REV_AT_EPOCH":14773,"BSTAR":0.00010378379,"MEAN_MOTION_DOT":1.198e-5,"MEAN_MOTION_DDOT":0},{"OBJECT_NAME":"STARLINK-6209","OBJECT_ID":"2023-083B","EPOCH":"2026-02-11T13:00:01.505376","MEAN_MOTION":15.02535254,"ECCENTRICITY":0.00012311,"INCLINATION":43.002,"RA_OF_ASC_NODE":224.1536,"ARG_OF_PERICENTER":270.2324,"MEAN_ANOMALY":89.8378,"EPHEMERIS_TYPE":0,"CLASSIFICATION_TYPE":"U","NORAD_CAT_ID":56877,"ELEMENT_SET_NO":999,"REV_AT_EPOCH":14773,"BSTAR":1.9542214e-5,"MEAN_MOTION_DOT":6.0e-7,"MEAN_MOTION_DDOT":0},{"OBJECT_NAME":"STARLINK-6182","OBJECT_ID":"2023-083C","EPOCH":"2026-02-11T19:32:31.489440","MEAN_MOTION":15.02541901,"ECCENTRICITY":0.000122,"INCLINATION":43.0011,"RA_OF_ASC_NODE":222.7596,"ARG_OF_PERICENTER":253.6639,"MEAN_ANOMALY":106.407,"EPHEMERIS_TYPE":0,"CLASSIFICATION_TYPE":"U","NORAD_CAT_ID":56878,"ELEMENT_SET_NO":999,"REV_AT_EPOCH":14777,"BSTAR":4.8589273e-5,"MEAN_MOTION_DOT":4.53e-6,"MEAN_MOTION_DDOT":0},{"OBJECT_NAME":"STARLINK-5707","OBJECT_ID":"2023-083D","EPOCH":"2026-02-11T13:04:49.030752","MEAN_MOTION":15.02542524,"ECCENTRICITY":0.00010899,"INCLINATION":43.0002,"RA_OF_ASC_NODE":224.1826,"ARG_OF_PERICENTER":268.7049,"MEAN_ANOMALY":91.3668,"EPHEMERIS_TYPE":0,"CLASSIFICATION_TYPE":"U","NORAD_CAT_ID":56879,"ELEMENT_SET_NO":999,"REV_AT_EPOCH":14773,"BSTAR":9.3795558e-5,"MEAN_MOTION_DOT":1.064e-5,"MEAN_MOTION_DDOT":0},{"OBJECT_NAME":"STARLINK-6177","OBJECT_ID":"2023-083E","EPOCH":"2026-02-11T12:40:49.560096","MEAN_MOTION":15.02543296,"ECCENTRICITY":4.055e-5,"INCLINATION":42.9992,"RA_OF_ASC_NODE":224.0577,"ARG_OF_PERICENTER":336.4529,"MEAN_ANOMALY":23.6294,"EPHEMERIS_TYPE":0,"CLASSIFICATION_TYPE":"U","NORAD_CAT_ID":56880,"ELEMENT_SET_NO":999,"REV_AT_EPOCH":14773,"BSTAR":7.9564372e-5,"MEAN_MOTION_DOT":8.72e-6,"MEAN_MOTION_DDOT":0},{"OBJECT_NAME":"STARLINK-5853","OBJECT_ID":"2023-083F","EPOCH":"2026-02-11T19:24:31.808736","MEAN_MOTION":15.02537243,"ECCENTRICITY":9.508e-5,"INCLINATION":43.004,"RA_OF_ASC_NODE":222.7098,"ARG_OF_PERICENTER":248.0615,"MEAN_ANOMALY":112.0126,"EPHEMERIS_TYPE":0,"CLASSIFICATION_TYPE":"U","NORAD_CAT_ID":56881,"ELEMENT_SET_NO":999,"REV_AT_EPOCH":14777,"BSTAR":4.3839903e-5,"MEAN_MOTION_DOT":3.89e-6,"MEAN_MOTION_DDOT":0},{"OBJECT_NAME":"STARLINK-6175","OBJECT_ID":"2023-083G","EPOCH":"2026-02-11T22:16:49.173888","MEAN_MOTION":15.02530327,"ECCENTRICITY":0.00013776,"INCLINATION":43.0025,"RA_OF_ASC_NODE":221.8922,"ARG_OF_PERICENTER":264.2277,"MEAN_ANOMALY":95.8408,"EPHEMERIS_TYPE":0,"CLASSIFICATION_TYPE":"U","NORAD_CAT_ID":56882,"ELEMENT_SET_NO":999,"REV_AT_EPOCH":14779,"BSTAR":1.5102551e-5,"MEAN_MOTION_DOT":0,"MEAN_MOTION_DDOT":0},{"OBJECT_NAME":"STARLINK-6171","OBJECT_ID":"2023-083H","EPOCH":"2026-02-11T12:56:50.202816","MEAN_MOTION":15.02526359,"ECCENTRICITY":0.00013798,"INCLINATION":43.0017,"RA_OF_ASC_NODE":224.1373,"ARG_OF_PERICENTER":274.253,"MEAN_ANOMALY":85.8154,"EPHEMERIS_TYPE":0,"CLASSIFICATION_TYPE":"U","NORAD_CAT_ID":56883,"ELEMENT_SET_NO":999,"REV_AT_EPOCH":14773,"BSTAR":6.8496897e-5,"MEAN_MOTION_DOT":7.22e-6,"MEAN_MOTION_DDOT":0},{"OBJECT_NAME":"STARLINK-5515","OBJECT_ID":"2023-083J","EPOCH":"2026-02-11T18:55:47.385696","MEAN_MOTION":15.02531195,"ECCENTRICITY":8.726e-5,"INCLINATION":43.001,"RA_OF_ASC_NODE":222.5647,"ARG_OF_PERICENTER":277.6364,"MEAN_ANOMALY":82.4379,"EPHEMERIS_TYPE":0,"CLASSIFICATION_TYPE":"U","NORAD_CAT_ID":56884,"ELEMENT_SET_NO":999,"REV_AT_EPOCH":14777,"BSTAR":3.5367323e-5,"MEAN_MOTION_DOT":2.74e-6,"MEAN_MOTION_DDOT":0},{"OBJECT_NAME":"STARLINK-5095","OBJECT_ID":"2023-083K","EPOCH":"2026-02-11T12:52:02.065728","MEAN_MOTION":15.0253964,"ECCENTRICITY":1.957e-5,"INCLINATION":42.9977,"RA_OF_ASC_NODE":224.1099,"ARG_OF_PERICENTER":230.721,"MEAN_ANOMALY":129.3615,"EPHEMERIS_TYPE":0,"CLASSIFICATION_TYPE":"U","NORAD_CAT_ID":56885,"ELEMENT_SET_NO":999,"REV_AT_EPOCH":14773,"BSTAR":6.9428682e-5,"MEAN_MOTION_DOT":7.35e-6,"MEAN_MOTION_DDOT":0},{"OBJECT_NAME":"STARLINK-5496","OBJECT_ID":"2023-083L","EPOCH":"2026-02-11T22:05:37.398336","MEAN_MOTION":15.02539195,"ECCENTRICITY":0.00010048,"INCLINATION":42.9981,"RA_OF_ASC_NODE":221.8374,"ARG_OF_PERICENTER":266.7824,"MEAN_ANOMALY":93.2904,"EPHEMERIS_TYPE":0,"CLASSIFICATION_TYPE":"U","NORAD_CAT_ID":56886,"ELEMENT_SET_NO":999,"REV_AT_EPOCH":14779,"BSTAR":5.9535233e-5,"MEAN_MOTION_DOT":6.01e-6,"MEAN_MOTION_DDOT":0},{"OBJECT_NAME":"STARLINK-6180","OBJECT_ID":"2023-083M","EPOCH":"2026-02-11T22:12:00.140832","MEAN_MOTION":15.02540952,"ECCENTRICITY":0.00010645,"INCLINATION":42.9998,"RA_OF_ASC_NODE":221.8727,"ARG_OF_PERICENTER":319.9759,"MEAN_ANOMALY":40.1005,"EPHEMERIS_TYPE":0,"CLASSIFICATION_TYPE":"U","NORAD_CAT_ID":56887,"ELEMENT_SET_NO":999,"REV_AT_EPOCH":14779,"BSTAR":1.9011672e-5,"MEAN_MOTION_DOT":5.3e-7,"MEAN_MOTION_DDOT":0}]
