STARLINK-30078          
1 56841U 23079U   26042.76544647  .00000988  00000+0  45433-4 0  9999
2 56841  43.0010 205.7746 0001098 292.1643  67.9092 15.27581982149487
STARLINK-30135          
1 56842U 23079V   26042.90560137  .00000875  00000+0  79803-4 0  9991
2 56842  43.0010 247.5682 0001253 259.7557 100.3144 15.02540382149007
STARLINK-30137          
1 56843U 23079W   26041.03090908 -.00000241  00000+0 -27400-5 0  9995
2 56843  43.0019 257.5793 0000979 257.3131 102.7602 15.02532659148728
STARLINK-30136          
1 56844U 23079X   26042.91892822 -.00000339  00000+0 -10037-4 0  9994
2 56844  43.0038 247.6493 0001054 269.5514  90.5207 15.02532087149004
STARLINK-6206           
1 56876U 23083A   26042.54946427  .00001198  00000+0  10378-3 0  9993
2 56876  43.0028 224.2146 0001776 256.4647 103.5998 15.02534961147730
STARLINK-6209           
1 56877U 23083B   26042.54168409  .00000060  00000+0  19542-4 0  9990
2 56877  43.0020 224.1536 0001231 270.2324  89.8378 15.02535254147731
STARLINK-6182           
1 56878U 23083C   26042.81425335  .00000453  00000+0  48589-4 0  9994
2 56878  43.0011 222.7596 0001220 253.6639 106.4070 15.02541901147779
STARLINK-5707           
1 56879U 23083D   26042.54501193  .00001064  00000+0  93796-4 0  9991
2 56879  43.0002 224.1826 0001089 268.7049  91.3668 15.02542524147730
STARLINK-6177           
1 56880U 23083E   26042.52835139  .00000872  00000+0  79564-4 0  9994
2 56880  42.9992 224.0577 0000405 336.4529  23.6294 15.02543296147737
STARLINK-5853           
1 56881U 23083F   26042.80870149  .00000389  00000+0  43840-4 0  9997
2 56881  43.0040 222.7098 0000950 248.0615 112.0126 15.02537243147772
STARLINK-6175           
1 56882U 23083G   26042.92834692  .00000000  00000+0  15103-4 0  9995
2 56882  43.0025 221.8922 0001377 264.2277  95.8408 15.02530327147799
STARLINK-6171           
1 56883U 23083H   26042.53946994  .00000722  00000+0  68497-4 0  9997
2 56883  43.0017 224.1373 0001379 274.2530  85.8154 15.02526359147733
STARLINK-5515           
1 56884U 23083J   26042.78874289  .00000274  00000+0  35367-4 0  9994
2 56884  43.0010 222.5647 0000872 277.6364  82.4379 15.02531195147772
STARLINK-5095           
1 56885U 23083K   26042.53613502  .00000735  00000+0  69429-4 0  9995
2 56885  42.9977 224.1099 0000195 230.7210 129.3615 15.02539640147733
STARLINK-5496           
1 56886U 23083L   26042.92057174  .00000601  00000+0  59535-4 0  9995
2 56886  42.9981 221.8374 0001004 266.7824  93.2904 15.02539195147790
STARLINK-6180           
1 56887U 23083M   26042.92500163  .00000053  00000+0  19012-4 0  9994
2 56887  42.9998 221.8727 0001064 319.9759  40.1005 15.02540952147791
